HIMAWARI-8              
1 40267U 14060A   24113.89146622 -.00000264  00000+0  00000+0 0  9990
2 40267   0.0361 144.7701 0000986 248.8901 279.3573  1.00274328 34886
